NESS                    
1 58020U 23155E   26068.76452457  .00019469  00000+0  74047-3 0  9996
2 58020  97.5941 152.6141 0006891 179.8776 180.2465 15.26794015133307
STARLINK-32802          
1 62738U 25014D   26068.24670750  .00035269  00000+0  12851-2 0  9994
2 62738  43.0003 156.5437 0001211 247.8832 112.1891 15.27580243 63197
